{
  "norad_id": 66366,
  "name": "STARLINK-35845",
  "history": [
    {
      "epoch": "2026-03-28T21:11:07.222272",
      "apogee_km": 476.206557817306,
      "perigee_km": 474.13822904236986,
      "latitude_deg": -47.218561471735725,
      "longitude_deg": -178.65864191995934,
      "semi_major_axis_km": 6853.309393429838,
      "eccentricity": 0.0001509,
      "inclination_deg": 53.16,
      "raan_deg": 143.3413,
      "arg_perigee_deg": 86.5234,
      "mean_anomaly_deg": 273.5939,
      "mean_motion_rev_day": 15.30214293
    }
  ]
}